[
  {
    "OBJECT_NAME": "STARLINK-1234",
    "OBJECT_ID": "20012N",
    "EPOCH": "2025-11-11T00:20:47.918400",
    "MEAN_MOTION": 15.37539319,
    "ECCENTRICITY": 0.0004209,
    "INCLINATION": 53.0537,
    "RA_OF_ASC_NODE": 174.1272,
    "ARG_OF_PERICENTER": 117.2124,
    "MEAN_ANOMALY": 242.9308,
    "EPHEMERIS_TYPE": 0,
    "CLASSIFICATION_TYPE": "U",
    "NORAD_CAT_ID": 45190,
    "ELEMENT_SET_NO": 999,
    "REV_AT_EPOCH": 31748,
    "BSTAR": 0.0022660000000000002,
    "MEAN_MOTION_DOT": 0.00085274,
    "MEAN_MOTION_DDOT": 0.0,
    "TLE_LINE1": "1 45190U 20012N   25315.01444350  .00085274  00000+0  22660-2 0  9994",
    "TLE_LINE2": "2 45190  53.0537 174.1272 0004209 117.2124 242.9308 15.37539319317488",
    "COMMENT": "Grouped by shell and plane from TLE"
  },
  {
    "OBJECT_NAME": "STARLINK-1209",
    "OBJECT_ID": "20012AE",
    "EPOCH": "2025-11-11T05:53:05.845056",
    "MEAN_MOTION": 15.31486533,
    "ECCENTRICITY": 0.0002877,
    "INCLINATION": 53.0522,
    "RA_OF_ASC_NODE": 174.1059,
    "ARG_OF_PERICENTER": 125.9444,
    "MEAN_ANOMALY": 234.1823,
    "EPHEMERIS_TYPE": 0,
    "CLASSIFICATION_TYPE": "U",
    "NORAD_CAT_ID": 45206,
    "ELEMENT_SET_NO": 999,
    "REV_AT_EPOCH": 31665,
    "BSTAR": 0.0025913999999999998,
    "MEAN_MOTION_DOT": 0.0008039,
    "MEAN_MOTION_DDOT": 0.0,
    "TLE_LINE1": "1 45206U 20012AE  25315.24520654  .00080390  00000+0  25914-2 0  9998",
    "TLE_LINE2": "2 45206  53.0522 174.1059 0002877 125.9444 234.1823 15.31486533316659",
    "COMMENT": "Grouped by shell and plane from TLE"
  },
  {
    "OBJECT_NAME": "STARLINK-1759",
    "OBJECT_ID": "20062R",
    "EPOCH": "2025-11-11T00:17:45.949632",
    "MEAN_MOTION": 15.30468666,
    "ECCENTRICITY": 0.0009683,
    "INCLINATION": 53.0348,
    "RA_OF_ASC_NODE": 175.7924,
    "ARG_OF_PERICENTER": 102.7176,
    "MEAN_ANOMALY": 257.4906,
    "EPHEMERIS_TYPE": 0,
    "CLASSIFICATION_TYPE": "U",
    "NORAD_CAT_ID": 46340,
    "ELEMENT_SET_NO": 999,
    "REV_AT_EPOCH": 28660,
    "BSTAR": 0.0027527000000000003,
    "MEAN_MOTION_DOT": 0.00082873,
    "MEAN_MOTION_DDOT": 0.0,
    "TLE_LINE1": "1 46340U 20062R   25315.01233738  .00082873  00000+0  27527-2 0  9992",
    "TLE_LINE2": "2 46340  53.0348 175.7924 0009683 102.7176 257.4906 15.30468666286607",
    "COMMENT": "Grouped by shell and plane from TLE"
  },
  {
    "OBJECT_NAME": "STARLINK-1958",
    "OBJECT_ID": "21009M",
    "EPOCH": "2025-11-11T08:00:03.000384",
    "MEAN_MOTION": 15.37180766,
    "ECCENTRICITY": 0.0001489,
    "INCLINATION": 53.0659,
    "RA_OF_ASC_NODE": 170.9765,
    "ARG_OF_PERICENTER": 107.0013,
    "MEAN_ANOMALY": 275.5367,
    "EPHEMERIS_TYPE": 0,
    "CLASSIFICATION_TYPE": "U",
    "NORAD_CAT_ID": 47559,
    "ELEMENT_SET_NO": 999,
    "REV_AT_EPOCH": 580,
    "BSTAR": 0.00034728,
    "MEAN_MOTION_DOT": 0.00012462,
    "MEAN_MOTION_DDOT": 0.0,
    "TLE_LINE1": "1 47559U 21009M   25315.33336806  .00012462  00000+0  34728-3 0  9991",
    "TLE_LINE2": "2 47559  53.0659 170.9765 0001489 107.0013 275.5367 15.37180766  5801",
    "COMMENT": "Grouped by shell and plane from TLE"
  },
  {
    "OBJECT_NAME": "STARLINK-1971",
    "OBJECT_ID": "21009AA",
    "EPOCH": "2025-11-11T08:00:03.000384",
    "MEAN_MOTION": 15.42361029,
    "ECCENTRICITY": 0.000164,
    "INCLINATION": 53.055,
    "RA_OF_ASC_NODE": 179.9903,
    "ARG_OF_PERICENTER": 97.0916,
    "MEAN_ANOMALY": 131.3155,
    "EPHEMERIS_TYPE": 0,
    "CLASSIFICATION_TYPE": "U",
    "NORAD_CAT_ID": 47572,
    "ELEMENT_SET_NO": 999,
    "REV_AT_EPOCH": 580,
    "BSTAR": 0.0017316999999999999,
    "MEAN_MOTION_DOT": 0.00076218,
    "MEAN_MOTION_DDOT": 0.0,
    "TLE_LINE1": "1 47572U 21009AA  25315.33336806  .00076218  00000+0  17317-2 0  9999",
    "TLE_LINE2": "2 47572  53.0550 179.9903 0001640  97.0916 131.3155 15.42361029  5801",
    "COMMENT": "Grouped by shell and plane from TLE"
  },
  {
    "OBJECT_NAME": "STARLINK-1655",
    "OBJECT_ID": "21012D",
    "EPOCH": "2025-11-11T00:11:33.664128",
    "MEAN_MOTION": 15.35441823,
    "ECCENTRICITY": 0.0002858,
    "INCLINATION": 53.0529,
    "RA_OF_ASC_NODE": 174.9485,
    "ARG_OF_PERICENTER": 148.4035,
    "MEAN_ANOMALY": 211.7138,
    "EPHEMERIS_TYPE": 0,
    "CLASSIFICATION_TYPE": "U",
    "NORAD_CAT_ID": 47623,
    "ELEMENT_SET_NO": 999,
    "REV_AT_EPOCH": 26307,
    "BSTAR": 0.0024358,
    "MEAN_MOTION_DOT": 0.0008568,
    "MEAN_MOTION_DDOT": 0.0,
    "TLE_LINE1": "1 47623U 21012D   25315.00802852  .00085680  00000+0  24358-2 0  9999",
    "TLE_LINE2": "2 47623  53.0529 174.9485 0002858 148.4035 211.7138 15.35441823263071",
    "COMMENT": "Grouped by shell and plane from TLE"
  },
  {
    "OBJECT_NAME": "STARLINK-30920",
    "OBJECT_ID": "23178E",
    "EPOCH": "2025-11-11T01:03:35.909568",
    "MEAN_MOTION": 15.30209572,
    "ECCENTRICITY": 0.0001023,
    "INCLINATION": 53.1589,
    "RA_OF_ASC_NODE": 179.6031,
    "ARG_OF_PERICENTER": 109.9451,
    "MEAN_ANOMALY": 250.166,
    "EPHEMERIS_TYPE": 0,
    "CLASSIFICATION_TYPE": "U",
    "NORAD_CAT_ID": 58378,
    "ELEMENT_SET_NO": 999,
    "REV_AT_EPOCH": 11190,
    "BSTAR": 6.542000000000001e-05,
    "MEAN_MOTION_DOT": 1.579e-05,
    "MEAN_MOTION_DDOT": 0.0,
    "TLE_LINE1": "1 58378U 23178E   25315.04416562  .00001579  00000+0  65420-4 0  9998",
    "TLE_LINE2": "2 58378  53.1589 179.6031 0001023 109.9451 250.1660 15.30209572111902",
    "COMMENT": "Grouped by shell and plane from TLE"
  },
  {
    "OBJECT_NAME": "STARLINK-31252",
    "OBJECT_ID": "24041K",
    "EPOCH": "2025-11-11T06:23:46.650624",
    "MEAN_MOTION": 15.27627393,
    "ECCENTRICITY": 0.0001435,
    "INCLINATION": 43.0006,
    "RA_OF_ASC_NODE": 176.3098,
    "ARG_OF_PERICENTER": 256.4581,
    "MEAN_ANOMALY": 103.6111,
    "EPHEMERIS_TYPE": 0,
    "CLASSIFICATION_TYPE": "U",
    "NORAD_CAT_ID": 59083,
    "ELEMENT_SET_NO": 999,
    "REV_AT_EPOCH": 9716,
    "BSTAR": 0.00083887,
    "MEAN_MOTION_DOT": 0.00022927,
    "MEAN_MOTION_DDOT": 0.0,
    "TLE_LINE1": "1 59083U 24041K   25315.26651216  .00022927  00000+0  83887-3 0  9999",
    "TLE_LINE2": "2 59083  43.0006 176.3098 0001435 256.4581 103.6111 15.27627393 97169",
    "COMMENT": "Grouped by shell and plane from TLE"
  },
  {
    "OBJECT_NAME": "STARLINK-31463",
    "OBJECT_ID": "24056A",
    "EPOCH": "2025-11-11T00:53:08.079648",
    "MEAN_MOTION": 15.27586338,
    "ECCENTRICITY": 0.0001282,
    "INCLINATION": 42.9998,
    "RA_OF_ASC_NODE": 176.8447,
    "ARG_OF_PERICENTER": 268.5236,
    "MEAN_ANOMALY": 91.5469,
    "EPHEMERIS_TYPE": 0,
    "CLASSIFICATION_TYPE": "U",
    "NORAD_CAT_ID": 59296,
    "ELEMENT_SET_NO": 999,
    "REV_AT_EPOCH": 9305,
    "BSTAR": 0.00024786000000000003,
    "MEAN_MOTION_DOT": 6.566e-05,
    "MEAN_MOTION_DDOT": 0.0,
    "TLE_LINE1": "1 59296U 24056A   25315.03689907  .00006566  00000+0  24786-3 0  9998",
    "TLE_LINE2": "2 59296  42.9998 176.8447 0001282 268.5236  91.5469 15.27586338 93055",
    "COMMENT": "Grouped by shell and plane from TLE"
  },
  {
    "OBJECT_NAME": "STARLINK-31409",
    "OBJECT_ID": "24056D",
    "EPOCH": "2025-11-11T00:15:10.740672",
    "MEAN_MOTION": 15.2759014,
    "ECCENTRICITY": 0.0001089,
    "INCLINATION": 43.0041,
    "RA_OF_ASC_NODE": 174.0524,
    "ARG_OF_PERICENTER": 272.4099,
    "MEAN_ANOMALY": 87.6628,
    "EPHEMERIS_TYPE": 0,
    "CLASSIFICATION_TYPE": "U",
    "NORAD_CAT_ID": 59299,
    "ELEMENT_SET_NO": 999,
    "REV_AT_EPOCH": 9320,
    "BSTAR": 5.5951e-05,
    "MEAN_MOTION_DOT": 1.278e-05,
    "MEAN_MOTION_DDOT": 0.0,
    "TLE_LINE1": "1 59299U 24056D   25315.01054098  .00001278  00000+0  55951-4 0  9990",
    "TLE_LINE2": "2 59299  43.0041 174.0524 0001089 272.4099  87.6628 15.27590140 93207",
    "COMMENT": "Grouped by shell and plane from TLE"
  },
  {
    "OBJECT_NAME": "STARLINK-31502",
    "OBJECT_ID": "24056F",
    "EPOCH": "2025-11-10T07:56:37.495392",
    "MEAN_MOTION": 15.27573289,
    "ECCENTRICITY": 8.27e-05,
    "INCLINATION": 43.0042,
    "RA_OF_ASC_NODE": 177.5396,
    "ARG_OF_PERICENTER": 268.9201,
    "MEAN_ANOMALY": 91.1555,
    "EPHEMERIS_TYPE": 0,
    "CLASSIFICATION_TYPE": "U",
    "NORAD_CAT_ID": 59301,
    "ELEMENT_SET_NO": 999,
    "REV_AT_EPOCH": 9298,
    "BSTAR": 8.1e-05,
    "MEAN_MOTION_DOT": 1.967e-05,
    "MEAN_MOTION_DDOT": 0.0,
    "TLE_LINE1": "1 59301U 24056F   25314.33098953  .00001967  00000+0  81000-4 0  9995",
    "TLE_LINE2": "2 59301  43.0042 177.5396 0000827 268.9201  91.1555 15.27573289 92989",
    "COMMENT": "Grouped by shell and plane from TLE"
  },
  {
    "OBJECT_NAME": "STARLINK-31474",
    "OBJECT_ID": "24056J",
    "EPOCH": "2025-11-11T00:22:34.726080",
    "MEAN_MOTION": 15.27587055,
    "ECCENTRICITY": 8.71e-05,
    "INCLINATION": 43.0005,
    "RA_OF_ASC_NODE": 174.0833,
    "ARG_OF_PERICENTER": 301.9489,
    "MEAN_ANOMALY": 58.1278,
    "EPHEMERIS_TYPE": 0,
    "CLASSIFICATION_TYPE": "U",
    "NORAD_CAT_ID": 59304,
    "ELEMENT_SET_NO": 999,
    "REV_AT_EPOCH": 9308,
    "BSTAR": 0.00014653,
    "MEAN_MOTION_DOT": 3.773e-05,
    "MEAN_MOTION_DDOT": 0.0,
    "TLE_LINE1": "1 59304U 24056J   25315.01567970  .00003773  00000+0  14653-3 0  9990",
    "TLE_LINE2": "2 59304  43.0005 174.0833 0000871 301.9489  58.1278 15.27587055 93087",
    "COMMENT": "Grouped by shell and plane from TLE"
  },
  {
    "OBJECT_NAME": "STARLINK-31455",
    "OBJECT_ID": "24056P",
    "EPOCH": "2025-11-11T00:42:15.312960",
    "MEAN_MOTION": 15.27542421,
    "ECCENTRICITY": 4.18e-05,
    "INCLINATION": 42.9996,
    "RA_OF_ASC_NODE": 177.6499,
    "ARG_OF_PERICENTER": 267.0413,
    "MEAN_ANOMALY": 93.0391,
    "EPHEMERIS_TYPE": 0,
    "CLASSIFICATION_TYPE": "U",
    "NORAD_CAT_ID": 59309,
    "ELEMENT_SET_NO": 999,
    "REV_AT_EPOCH": 9304,
    "BSTAR": 0.00034249000000000004,
    "MEAN_MOTION_DOT": 9.164e-05,
    "MEAN_MOTION_DDOT": 0.0,
    "TLE_LINE1": "1 59309U 24056P   25315.02934390  .00009164  00000+0  34249-3 0  9993",
    "TLE_LINE2": "2 59309  42.9996 177.6499 0000418 267.0413  93.0391 15.27542421 93040",
    "COMMENT": "Grouped by shell and plane from TLE"
  }
]